FENGYUN 1C DEB          
1 33711U 99025DGY 17345.46939661  .00000471  00000-0  35705-3 0  9999
2 33711  99.2746 319.9364 0110080  97.1218  25.3518 13.96119779516668
